[
  {
    "nom": "Paris",
    "code_postal": "75000",
    "latitude": 48.8566,
    "longitude": 2.3522
  },
  {
    "nom": "Boulogne-Billancourt",
    "code_postal": "92100",
    "latitude": 48.8397,
    "longitude": 2.2399
  },
  {
    "nom": "Saint-Denis",
    "code_postal": "93200",
    "latitude": 48.9362,
    "longitude": 2.3574
  },
  {
    "nom": "Argenteuil",
    "code_postal": "95100",
    "latitude": 48.9472,
    "longitude": 2.2467
  },
  {
    "nom": "Montreuil",
    "code_postal": "93100",
    "latitude": 48.8641,
    "longitude": 2.4430
  },
  {
    "nom": "Nanterre",
    "code_postal": "92000",
    "latitude": 48.8924,
    "longitude": 2.2066
  },
  {
    "nom": "Versailles",
    "code_postal": "78000",
    "latitude": 48.8014,
    "longitude": 2.1301
  },
  {
    "nom": "Créteil",
    "code_postal": "94000",
    "latitude": 48.7904,
    "longitude": 2.4556
  },
  {
    "nom": "Colombes",
    "code_postal": "92700",
    "latitude": 48.9226,
    "longitude": 2.2530
  },
  {
    "nom": "Asnières-sur-Seine",
    "code_postal": "92600",
    "latitude": 48.9115,
    "longitude": 2.2870
  },
  {
    "nom": "Lyon",
    "code_postal": "69000",
    "latitude": 45.7640,
    "longitude": 4.8357
  },
  {
    "nom": "Saint-Étienne",
    "code_postal": "42000",
    "latitude": 45.4397,
    "longitude": 4.3872
  },
  {
    "nom": "Grenoble",
    "code_postal": "38000",
    "latitude": 45.1885,
    "longitude": 5.7245
  },
  {
    "nom": "Clermont-Ferrand",
    "code_postal": "63000",
    "latitude": 45.7772,
    "longitude": 3.0870
  },
  {
    "nom": "Annecy",
    "code_postal": "74000",
    "latitude": 45.8992,
    "longitude": 6.1294
  },
  {
    "nom": "Chambéry",
    "code_postal": "73000",
    "latitude": 45.5646,
    "longitude": 5.9178
  },
  {
    "nom": "Villeurbanne",
    "code_postal": "69100",
    "latitude": 45.7719,
    "longitude": 4.8902
  },
  {
    "nom": "Vénissieux",
    "code_postal": "69200",
    "latitude": 45.6984,
    "longitude": 4.8799
  },
  {
    "nom": "Valence",
    "code_postal": "26000",
    "latitude": 44.9333,
    "longitude": 4.8924
  },
  {
    "nom": "Roanne",
    "code_postal": "42300",
    "latitude": 46.0357,
    "longitude": 4.0683
  },
  {
    "nom": "Marseille",
    "code_postal": "13000",
    "latitude": 43.2965,
    "longitude": 5.3698
  },
  {
    "nom": "Nice",
    "code_postal": "06000",
    "latitude": 43.7102,
    "longitude": 7.2620
  },
  {
    "nom": "Toulon",
    "code_postal": "83000",
    "latitude": 43.1242,
    "longitude": 5.9280
  },
  {
    "nom": "Aix-en-Provence",
    "code_postal": "13100",
    "latitude": 43.5297,
    "longitude": 5.4474
  },
  {
    "nom": "Avignon",
    "code_postal": "84000",
    "latitude": 43.9493,
    "longitude": 4.8055
  },
  {
    "nom": "Cannes",
    "code_postal": "06400",
    "latitude": 43.5528,
    "longitude": 7.0174
  },
  {
    "nom": "Antibes",
    "code_postal": "06600",
    "latitude": 43.5804,
    "longitude": 7.1251
  },
  {
    "nom": "La Seyne-sur-Mer",
    "code_postal": "83500",
    "latitude": 43.1006,
    "longitude": 5.8794
  },
  {
    "nom": "Hyères",
    "code_postal": "83400",
    "latitude": 43.1207,
    "longitude": 6.1286
  },
  {
    "nom": "Fréjus",
    "code_postal": "83600",
    "latitude": 43.4328,
    "longitude": 6.7356
  },
  {
    "nom": "Toulouse",
    "code_postal": "31000",
    "latitude": 43.6045,
    "longitude": 1.4442
  },
  {
    "nom": "Montpellier",
    "code_postal": "34000",
    "latitude": 43.6111,
    "longitude": 3.8767
  },
  {
    "nom": "Nîmes",
    "code_postal": "30000",
    "latitude": 43.8367,
    "longitude": 4.3601
  },
  {
    "nom": "Perpignan",
    "code_postal": "66000",
    "latitude": 42.6976,
    "longitude": 2.8954
  },
  {
    "nom": "Béziers",
    "code_postal": "34500",
    "latitude": 43.3442,
    "longitude": 3.2158
  },
  {
    "nom": "Albi",
    "code_postal": "81000",
    "latitude": 43.9251,
    "longitude": 2.148
  },
  {
    "nom": "Tarbes",
    "code_postal": "65000",
    "latitude": 43.2331,
    "longitude": 0.0781
  },
  {
    "nom": "Carcassonne",
    "code_postal": "11000",
    "latitude": 43.2130,
    "longitude": 2.3510
  },
  {
    "nom": "Rodez",
    "code_postal": "12000",
    "latitude": 44.3500,
    "longitude": 2.5667
  },
  {
    "nom": "Auch",
    "code_postal": "32000",
    "latitude": 43.6466,
    "longitude": 0.5859
  },
  {
    "nom": "Rouen",
    "code_postal": "76000",
    "latitude": 49.4431,
    "longitude": 1.0993
  },
  {
    "nom": "Caen",
    "code_postal": "14000",
    "latitude": 49.1829,
    "longitude": -0.3707
  },
  {
    "nom": "Le Havre",
    "code_postal": "76600",
    "latitude": 49.4944,
    "longitude": 0.1079
  },
  {
    "nom": "Cherbourg-en-Cotentin",
    "code_postal": "50100",
    "latitude": 49.6397,
    "longitude": -1.6167
  },
  {
    "nom": "Évreux",
    "code_postal": "27000",
    "latitude": 49.0241,
    "longitude": 1.1508
  },
  {
    "nom": "Orléans",
    "code_postal": "45000",
    "latitude": 47.9029,
    "longitude": 1.9093
  },
  {
    "nom": "Tours",
    "code_postal": "37000",
    "latitude": 47.3941,
    "longitude": 0.6848
  },
  {
    "nom": "Bourges",
    "code_postal": "18000",
    "latitude": 47.0810,
    "longitude": 2.3988
  },
  {
    "nom": "Châteauroux",
    "code_postal": "36000",
    "latitude": 46.8101,
    "longitude": 1.6910
  },
  {
    "nom": "Blois",
    "code_postal": "41000",
    "latitude": 47.5861,
    "longitude": 1.3359
  },
  {
    "nom": "Lille",
    "code_postal": "59000",
    "latitude": 50.6292,
    "longitude": 3.0573
  },
  {
    "nom": "Amiens",
    "code_postal": "80000",
    "latitude": 49.8950,
    "longitude": 2.3020
  },
  {
    "nom": "Dunkerque",
    "code_postal": "59140",
    "latitude": 51.0344,
    "longitude": 2.3770
  },
  {
    "nom": "Calais",
    "code_postal": "62100",
    "latitude": 50.9513,
    "longitude": 1.8587
  },
  {
    "nom": "Arras",
    "code_postal": "62000",
    "latitude": 50.2910,
    "longitude": 2.7775
  },
  {
    "nom": "Dijon",
    "code_postal": "21000",
    "latitude": 47.3220,
    "longitude": 5.0415
  },
  {
    "nom": "Besançon",
    "code_postal": "25000",
    "latitude": 47.2378,
    "longitude": 6.0241
  },
  {
    "nom": "Chalon-sur-Saône",
    "code_postal": "71100",
    "latitude": 46.7811,
    "longitude": 4.8521
  },
  {
    "nom": "Nevers",
    "code_postal": "58000",
    "latitude": 46.9896,
    "longitude": 3.1590
  },
  {
    "nom": "Mâcon",
    "code_postal": "71000",
    "latitude": 46.3069,
    "longitude": 4.8286
  }
]