[
  {
    "nom": "Paris",
    "code_postal": "75000",
    "latitude": 48.8566,
    "longitude": 2.3522
  },
  {
    "nom": "Boulogne-Billancourt",
    "code_postal": "92100",
    "latitude": 48.8397,
    "longitude": 2.2399
  },
  {
    "nom": "Saint-Denis",
    "code_postal": "93200",
    "latitude": 48.9362,
    "longitude": 2.3574
  },
  {
    "nom": "Argenteuil",
    "code_postal": "95100",
    "latitude": 48.9472,
    "longitude": 2.2467
  },
  {
    "nom": "Montreuil",
    "code_postal": "93100",
    "latitude": 48.8641,
    "longitude": 2.4430
  },
  {
    "nom": "Nanterre",
    "code_postal": "92000",
    "latitude": 48.8924,
    "longitude": 2.2066
  },
  {
    "nom": "Versailles",
    "code_postal": "78000",
    "latitude": 48.8014,
    "longitude": 2.1301
  },
  {
    "nom": "Créteil",
    "code_postal": "94000",
    "latitude": 48.7904,
    "longitude": 2.4556
  },
  {
    "nom": "Colombes",
    "code_postal": "92700",
    "latitude": 48.9226,
    "longitude": 2.2530
  },
  {
    "nom": "Asnières-sur-Seine",
    "code_postal": "92600",
    "latitude": 48.9115,
    "longitude": 2.2870
  },
  {
    "nom": "Lyon",
    "code_postal": "69000",
    "latitude": 45.7640,
    "longitude": 4.8357
  },
  {
    "nom": "Saint-Étienne",
    "code_postal": "42000",
    "latitude": 45.4397,
    "longitude": 4.3872
  },
  {
    "nom": "Grenoble",
    "code_postal": "38000",
    "latitude": 45.1885,
    "longitude": 5.7245
  },
  {
    "nom": "Clermont-Ferrand",
    "code_postal": "63000",
    "latitude": 45.7772,
    "longitude": 3.0870
  },
  {
    "nom": "Annecy",
    "code_postal": "74000",
    "latitude": 45.8992,
    "longitude": 6.1294
  },
  {
    "nom": "Chambéry",
    "code_postal": "73000",
    "latitude": 45.5646,
    "longitude": 5.9178
  },
  {
    "nom": "Villeurbanne",
    "code_postal": "69100",
    "latitude": 45.7719,
    "longitude": 4.8902
  },
  {
    "nom": "Vénissieux",
    "code_postal": "69200",
    "latitude": 45.6984,
    "longitude": 4.8799
  },
  {
    "nom": "Valence",
    "code_postal": "26000",
    "latitude": 44.9333,
    "longitude": 4.8924
  },
  {
    "nom": "Roanne",
    "code_postal": "42300",
    "latitude": 46.0357,
    "longitude": 4.0683
  },
  {
    "nom": "Marseille",
    "code_postal": "13000",
    "latitude": 43.2965,
    "longitude": 5.3698
  },
  {
    "nom": "Nice",
    "code_postal": "06000",
    "latitude": 43.7102,
    "longitude": 7.2620
  },
  {
    "nom": "Toulon",
    "code_postal": "83000",
    "latitude": 43.1242,
    "longitude": 5.9280
  },
  {
    "nom": "Aix-en-Provence",
    "code_postal": "13100",
    "latitude": 43.5297,
    "longitude": 5.4474
  },
  {
    "nom": "Avignon",
    "code_postal": "84000",
    "latitude": 43.9493,
    "longitude": 4.8055
  },
  {
    "nom": "Cannes",
    "code_postal": "06400",
    "latitude": 43.5528,
    "longitude": 7.0174
  },
  {
    "nom": "Antibes",
    "code_postal": "06600",
    "latitude": 43.5804,
    "longitude": 7.1251
  },
  {
    "nom": "La Seyne-sur-Mer",
    "code_postal": "83500",
    "latitude": 43.1006,
    "longitude": 5.8794
  },
  {
    "nom": "Hyères",
    "code_postal": "83400",
    "latitude": 43.1207,
    "longitude": 6.1286
  },
  {
    "nom": "Fréjus",
    "code_postal": "83600",
    "latitude": 43.4328,
    "longitude": 6.7356
  },
  {
    "nom": "Toulouse",
    "code_postal": "31000",
    "latitude": 43.6045,
    "longitude": 1.4442
  },
  {
    "nom": "Montpellier",
    "code_postal": "34000",
    "latitude": 43.6111,
    "longitude": 3.8767
  },
  {
    "nom": "Nîmes",
    "code_postal": "30000",
    "latitude": 43.8367,
    "longitude": 4.3601
  },
  {
    "nom": "Perpignan",
    "code_postal": "66000",
    "latitude": 42.6976,
    "longitude": 2.8954
  },
  {
    "nom": "Béziers",
    "code_postal": "34500",
    "latitude": 43.3442,
    "longitude": 3.2158
  },
  {
    "nom": "Albi",
    "code_postal": "81000",
    "latitude": 43.9251,
    "longitude": 2.148
  },
  {
    "nom": "Tarbes",
    "code_postal": "65000",
    "latitude": 43.2331,
    "longitude": 0.0781
  },
  {
    "nom": "Carcassonne",
    "code_postal": "11000",
    "latitude": 43.2130,
    "longitude": 2.3510
  },
  {
    "nom": "Rodez",
    "code_postal": "12000",
    "latitude": 44.3500,
    "longitude": 2.5667
  },
  {
    "nom": "Auch",
    "code_postal": "32000",
    "latitude": 43.6466,
    "longitude": 0.5859
  },
  {
    "nom": "Rouen",
    "code_postal": "76000",
    "latitude": 49.4431,
    "longitude": 1.0993
  },
  {
    "nom": "Caen",
    "code_postal": "14000",
    "latitude": 49.1829,
    "longitude": -0.3707
  },
  {
    "nom": "Le Havre",
    "code_postal": "76600",
    "latitude": 49.4944,
    "longitude": 0.1079
  },
  {
    "nom": "Cherbourg-en-Cotentin",
    "code_postal": "50100",
    "latitude": 49.6397,
    "longitude": -1.6167
  },
  {
    "nom": "Évreux",
    "code_postal": "27000",
    "latitude": 49.0241,
    "longitude": 1.1508
  },
  {
    "nom": "Orléans",
    "code_postal": "45000",
    "latitude": 47.9029,
    "longitude": 1.9093
  },
  {
    "nom": "Tours",
    "code_postal": "37000",
    "latitude": 47.3941,
    "longitude": 0.6848
  },
  {
    "nom": "Bourges",
    "code_postal": "18000",
    "latitude": 47.0810,
    "longitude": 2.3988
  },
  {
    "nom": "Châteauroux",
    "code_postal": "36000",
    "latitude": 46.8101,
    "longitude": 1.6910
  },
  {
    "nom": "Blois",
    "code_postal": "41000",
    "latitude": 47.5861,
    "longitude": 1.3359
  },
  {
    "nom": "Lille",
    "code_postal": "59000",
    "latitude": 50.6292,
    "longitude": 3.0573
  },
  {
    "nom": "Amiens",
    "code_postal": "80000",
    "latitude": 49.8950,
    "longitude": 2.3020
  },
  {
    "nom": "Dunkerque",
    "code_postal": "59140",
    "latitude": 51.0344,
    "longitude": 2.3770
  },
  {
    "nom": "Calais",
    "code_postal": "62100",
    "latitude": 50.9513,
    "longitude": 1.8587
  },
  {
    "nom": "Arras",
    "code_postal": "62000",
    "latitude": 50.2910,
    "longitude": 2.7775
  },
  {
    "nom": "Dijon",
    "code_postal": "21000",
    "latitude": 47.3220,
    "longitude": 5.0415
  },
  {
    "nom": "Besançon",
    "code_postal": "25000",
    "latitude": 47.2378,
    "longitude": 6.0241
  },
  {
    "nom": "Chalon-sur-Saône",
    "code_postal": "71100",
    "latitude": 46.7811,
    "longitude": 4.8521
  },
  {
    "nom": "Nevers",
    "code_postal": "58000",
    "latitude": 46.9896,
    "longitude": 3.1590
  },
  {
    "nom": "Mâcon",
    "code_postal": "71000",
    "latitude": 46.3069,
    "longitude": 4.8286
  },
  {
    "nom": "Brest",
    "code_postal": "29200",
    "latitude": 48.3904,
    "longitude": -4.4861
  },
  {
    "nom": "Plouzané",
    "code_postal": "29280",
    "latitude": 48.3743,
    "longitude": -4.6180
  },
  {
    "nom": "Le Conquet",
    "code_postal": "29217",
    "latitude": 48.3624,
    "longitude": -4.7406
  },
  {
    "nom": "Crozon",
    "code_postal": "29160",
    "latitude": 48.2467,
    "longitude": -4.4892
  },
  {
    "nom": "Douarnenez",
    "code_postal": "29100",
    "latitude": 48.0952,
    "longitude": -4.3292
  },
  {
    "nom": "Audierne",
    "code_postal": "29770",
    "latitude": 48.0173,
    "longitude": -4.5384
  },
  {
    "nom": "Pont-l'Abbé",
    "code_postal": "29120",
    "latitude": 47.8634,
    "longitude": -4.2218
  },
  {
    "nom": "Concarneau",
    "code_postal": "29900",
    "latitude": 47.8759,
    "longitude": -3.9229
  },
  {
    "nom": "Quimperlé",
    "code_postal": "29300",
    "latitude": 47.8689,
    "longitude": -3.5520
  },
  {
    "nom": "Lorient",
    "code_postal": "56100",
    "latitude": 47.7483,
    "longitude": -3.3702
  },
  {
    "nom": "Larmor-Plage",
    "code_postal": "56260",
    "latitude": 47.7324,
    "longitude": -3.3706
  },
  {
    "nom": "Guidel",
    "code_postal": "56520",
    "latitude": 47.7900,
    "longitude": -3.4854
  },
  {
    "nom": "Quiberon",
    "code_postal": "56170",
    "latitude": 47.4886,
    "longitude": -3.1217
  },
  {
    "nom": "Carnac",
    "code_postal": "56340",
    "latitude": 47.5935,
    "longitude": -3.1036
  },
  {
    "nom": "Auray",
    "code_postal": "56400",
    "latitude": 47.6661,
    "longitude": -2.9870
  },
  {
    "nom": "Vannes",
    "code_postal": "56000",
    "latitude": 47.6578,
    "longitude": -2.7609
  },
  {
    "nom": "Sarzeau",
    "code_postal": "56370",
    "latitude": 47.5190,
    "longitude": -2.7664
  },
  {
    "nom": "La Roche-Bernard",
    "code_postal": "56130",
    "latitude": 47.5138,
    "longitude": -2.3786
  },
  {
    "nom": "Piriac-sur-Mer",
    "code_postal": "44420",
    "latitude": 47.2979,
    "longitude": -2.4806
  },
  {
    "nom": "Le Croisic",
    "code_postal": "44490",
    "latitude": 47.2912,
    "longitude": -2.5239
  },
  {
    "nom": "Batz-sur-Mer",
    "code_postal": "44740",
    "latitude": 47.2561,
    "longitude": -2.4164
  },
  {
    "nom": "La Baule-Escoublac",
    "code_postal": "44500",
    "latitude": 47.2820,
    "longitude": -2.3970
  },
  {
    "nom": "Pornichet",
    "code_postal": "44380",
    "latitude": 47.2698,
    "longitude": -2.3990
  },
  {
    "nom": "Saint-Nazaire",
    "code_postal": "44600",
    "latitude": 47.2808,
    "longitude": -2.2097
  },
  {
    "nom": "Saint-Brevin-les-Pins",
    "code_postal": "44250",
    "latitude": 47.2110,
    "longitude": -2.1237
  },
  {
    "nom": "Pornic",
    "code_postal": "44210",
    "latitude": 47.1243,
    "longitude": -2.0846
  },
  {
    "nom": "Les Moutiers-en-Retz",
    "code_postal": "44760",
    "latitude": 47.1420,
    "longitude": -2.0820
  },
  {
    "nom": "Noirmoutier-en-l'Île",
    "code_postal": "85330",
    "latitude": 47.0406,
    "longitude": -2.2065
  },
  {
    "nom": "Saint-Gilles-Croix-de-Vie",
    "code_postal": "85800",
    "latitude": 46.6770,
    "longitude": -1.9317
  },
  {
    "nom": "Les Sables-d'Olonne",
    "code_postal": "85100",
    "latitude": 46.4963,
    "longitude": -1.7830
  },
  {
    "nom": "Talmont-Saint-Hilaire",
    "code_postal": "85440",
    "latitude": 46.4593,
    "longitude": -1.6774
  },
  {
    "nom": "Jard-sur-Mer",
    "code_postal": "85520",
    "latitude": 46.4054,
    "longitude": -1.5873
  },
  {
    "nom": "La Tranche-sur-Mer",
    "code_postal": "85360",
    "latitude": 46.2840,
    "longitude": -1.4232
  },
  {
    "nom": "L'Aiguillon-la-Presqu'île",
    "code_postal": "85460",
    "latitude": 46.3266,
    "longitude": -1.3154
  },
  {
    "nom": "Marans",
    "code_postal": "17230",
    "latitude": 46.3083,
    "longitude": -0.9886
  },
  {
    "nom": "La Rochelle",
    "code_postal": "17000",
    "latitude": 46.1603,
    "longitude": -1.1511
  },
  {
    "nom": "Aytré",
    "code_postal": "17440",
    "latitude": 46.1272,
    "longitude": -1.1178
  },
  {
    "nom": "Châtelaillon-Plage",
    "code_postal": "17340",
    "latitude": 46.1079,
    "longitude": -1.0822
  },
  {
    "nom": "Fouras",
    "code_postal": "17450",
    "latitude": 46.0761,
    "longitude": -1.0145
  },
  {
    "nom": "Rochefort",
    "code_postal": "17300",
    "latitude": 45.9374,
    "longitude": -0.9640
  },
  {
    "nom": "Marennes-Hiers-Brouage",
    "code_postal": "17320",
    "latitude": 45.8203,
    "longitude": -1.1036
  },
  {
    "nom": "La Tremblade",
    "code_postal": "17390",
    "latitude": 45.8164,
    "longitude": -1.1089
  },
  {
    "nom": "Royan",
    "code_postal": "17200",
    "latitude": 45.6235,
    "longitude": -1.0324
  },
  {
    "nom": "Meschers-sur-Gironde",
    "code_postal": "17132",
    "latitude": 45.5737,
    "longitude": -0.9581
  },
  {
    "nom": "Soulac-sur-Mer",
    "code_postal": "33780",
    "latitude": 45.5589,
    "longitude": -1.0294
  },
  {
    "nom": "Hourtin",
    "code_postal": "33990",
    "latitude": 45.1851,
    "longitude": -1.0712
  },
  {
    "nom": "Lacanau",
    "code_postal": "33680",
    "latitude": 45.0311,
    "longitude": -1.1418
  },
  {
    "nom": "Cap Ferret",
    "code_postal": "33950",
    "latitude": 44.6566,
    "longitude": -1.2469
  },
  {
    "nom": "Arcachon",
    "code_postal": "33120",
    "latitude": 44.6600,
    "longitude": -1.1550
  },
  {
    "nom": "Biscarrosse",
    "code_postal": "40600",
    "latitude": 44.3605,
    "longitude": -1.1743
  },
  {
    "nom": "Hossegor",
    "code_postal": "40150",
    "latitude": 43.6656,
    "longitude": -1.4202
  },
  {
    "nom": "Capbreton",
    "code_postal": "40130",
    "latitude": 43.6491,
    "longitude": -1.4136
  },
  {
    "nom": "Bayonne",
    "code_postal": "64100",
    "latitude": 43.4929,
    "longitude": -1.4749
  },
  {
    "nom": "Strasbourg",
    "code_postal": "67000",
    "latitude": 48.5734,
    "longitude": 7.7521
  },
  {
    "nom": "Mulhouse",
    "code_postal": "68100",
    "latitude": 47.7508,
    "longitude": 7.3359
  },
  {
    "nom": "Colmar",
    "code_postal": "68000",
    "latitude": 48.0790,
    "longitude": 7.3585
  },
  {
    "nom": "Metz",
    "code_postal": "57000",
    "latitude": 49.1193,
    "longitude": 6.1757
  },
  {
    "nom": "Nancy",
    "code_postal": "54000",
    "latitude": 48.6921,
    "longitude": 6.1844
  },
  {
    "nom": "Reims",
    "code_postal": "51100",
    "latitude": 49.2583,
    "longitude": 4.0317
  },
  {
    "nom": "Troyes",
    "code_postal": "10000",
    "latitude": 48.2973,
    "longitude": 4.0744
  },
  {
    "nom": "Charleville-Mézières",
    "code_postal": "08000",
    "latitude": 49.7624,
    "longitude": 4.7199
  },
  {
    "nom": "Épinal",
    "code_postal": "88000",
    "latitude": 48.1724,
    "longitude": 6.4496
  },
  {
    "nom": "Saint-Dizier",
    "code_postal": "52100",
    "latitude": 48.6352,
    "longitude": 4.9480
  },
  {
    "nom": "Châlons-en-Champagne",
    "code_postal": "51000",
    "latitude": 48.9563,
    "longitude": 4.3674
  },
  {
    "nom": "Bar-le-Duc",
    "code_postal": "55000",
    "latitude": 48.7745,
    "longitude": 5.1610
  },
  {
    "nom": "Verdun",
    "code_postal": "55100",
    "latitude": 49.1592,
    "longitude": 5.3820
  },
  {
    "nom": "Sarrebourg",
    "code_postal": "57400",
    "latitude": 48.7357,
    "longitude": 7.0538
  },
  {
    "nom": "Haguenau",
    "code_postal": "67500",
    "latitude": 48.8167,
    "longitude": 7.7833
  },
  {
    "nom": "Schiltigheim",
    "code_postal": "67300",
    "latitude": 48.6070,
    "longitude": 7.7532
  },
  {
    "nom": "Illkirch-Graffenstaden",
    "code_postal": "67400",
    "latitude": 48.5236,
    "longitude": 7.7154
  },
  {
    "nom": "Forbach",
    "code_postal": "57600",
    "latitude": 49.1894,
    "longitude": 6.9013
  },
  {
    "nom": "Thionville",
    "code_postal": "57100",
    "latitude": 49.3558,
    "longitude": 6.1690
  },
  {
    "nom": "Sélestat",
    "code_postal": "67600",
    "latitude": 48.2608,
    "longitude": 7.4551
  },
  {
    "nom": "Limoges",
    "code_postal": "87000",
    "latitude": 45.8315,
    "longitude": 1.2578
  },
  {
    "nom": "Poitiers",
    "code_postal": "86000",
    "latitude": 46.5802,
    "longitude": 0.3404
  },
  {
    "nom": "Angers",
    "code_postal": "49000",
    "latitude": 47.4784,
    "longitude": -0.5632
  },
  {
    "nom": "Rennes",
    "code_postal": "35000",
    "latitude": 48.1173,
    "longitude": -1.6778
  },
  {
    "nom": "Nantes",
    "code_postal": "44000",
    "latitude": 47.2184,
    "longitude": -1.5536
  },
  {
    "nom": "Le Mans",
    "code_postal": "72000",
    "latitude": 48.0061,
    "longitude": 0.1996
  },
  {
    "nom": "Bordeaux",
    "code_postal": "33000",
    "latitude": 44.8378,
    "longitude": -0.5792
  },
  {
    "nom": "Bergerac",
    "code_postal": "24100",
    "latitude": 44.8537,
    "longitude": 0.4835
  },
  {
    "nom": "Périgueux",
    "code_postal": "24000",
    "latitude": 45.1840,
    "longitude": 0.7216
  },
  {
    "nom": "Brive-la-Gaillarde",
    "code_postal": "19100",
    "latitude": 45.1590,
    "longitude": 1.5336
  },
  {
    "nom": "Angoulême",
    "code_postal": "16000",
    "latitude": 45.6484,
    "longitude": 0.1561
  },
  {
    "nom": "Bressuire",
    "code_postal": "79300",
    "latitude": 46.8443,
    "longitude": -0.4853
  },
  {
    "nom": "Châteaubriant",
    "code_postal": "44110",
    "latitude": 47.7184,
    "longitude": -1.3752
  }
]